[{"OBJECT_NAME":"STARLINK-32630","OBJECT_ID":"2024-216R","EPOCH":"2026-03-09T21:32:06.720864","MEAN_MOTION":15.27598629,"ECCENTRICITY":7.783e-5,"INCLINATION":42.9967,"RA_OF_ASC_NODE":262.3914,"ARG_OF_PERICENTER":339.1812,"MEAN_ANOMALY":20.9008,"EPHEMERIS_TYPE":0,"CLASSIFICATION_TYPE":"U","NORAD_CAT_ID":62047,"ELEMENT_SET_NO":999,"REV_AT_EPOCH":7382,"BSTAR":0.00086882533,"MEAN_MOTION_DOT":0.00023737,"MEAN_MOTION_DDOT":0},{"OBJECT_NAME":"OBJECT D","OBJECT_ID":"2021-102D","EPOCH":"2026-03-09T14:47:14.426880","MEAN_MOTION":15.2846442,"ECCENTRICITY":0.0009157,"INCLINATION":97.3342,"RA_OF_ASC_NODE":112.2633,"ARG_OF_PERICENTER":187.6206,"MEAN_ANOMALY":172.4897,"EPHEMERIS_TYPE":0,"CLASSIFICATION_TYPE":"U","NORAD_CAT_ID":49398,"ELEMENT_SET_NO":999,"REV_AT_EPOCH":23880,"BSTAR":0.00046011,"MEAN_MOTION_DOT":0.00012697,"MEAN_MOTION_DDOT":0}]
